name;norad_cat_id;epoch;tle_line1;tle_line2
CREW DRAGON 6 DEB [TRUN*;;2023-09-08T11:26:02+00:00;1 57799U 23027B   23251.47642099  .00045784  00000+0  69629-3 0  9997;2 57799  51.7807 275.9647 0005371  48.1461 311.9989 15.54063850   688
EUTELSAT 117 WEST B (W*);;2025-10-05T03:12:01+00:00;1 41589U 16038B   25278.13334792 -.00000011  00000+0  00000+0 0  9992;2 41589   0.0245  41.7886 0000118 207.9418  55.3414  1.00272870 34102
EUTELSAT 5 WEST B (EGN*);;2025-10-05T03:18:16+00:00;1 44624U 19067A   25278.13769168 -.00000041  00000+0  00000+0 0  9992;2 44624   0.0652   3.6178 0003232 193.1050 221.9331  1.00271906 21874
HULIANWAN GAOGUI-01 (H*);;2025-10-01T17:01:08+00:00;1 59069U 24040A   25274.70912281  .00000157  00000+0  00000+0 0  9990;2 59069   0.0567 299.6674 0000922 319.6220  40.3087  1.00271661  4738
HULIANWAN GAOGUI-02 (H*);;2025-10-03T21:13:44+00:00;1 60327U 24135A   25276.88454007 -.00000173  00000+0  00000+0 0  9991;2 60327   0.0337  94.3293 0001991 160.4269 229.6130  1.00271103  4935
HULIANWAN GAOGUI-03 (H*);;2025-10-01T01:20:09+00:00;1 61503U 24181A   25274.05566451 -.00000240  00000+0  00000+0 0  9998;2 61503   0.0143 131.2476 0001006 288.9553 252.7604  1.00274830  4225
HULIANWANG JISHU SHIYAN*;;2024-01-29T07:37:29+00:00;1 58691U 23212A   24029.31770823  .00000031  00000+0  14973-3 0  9997;2 58691  50.0020 308.9229 0007914  42.9651 317.1863 13.86996577  4216
HULIANWANG JISHU SHIYAN*;;2024-01-29T07:29:24+00:00;1 58692U 23212B   24029.31208911  .00000015  00000+0  13634-3 0  9997;2 58692  49.9988 308.8871 0004903  30.0711 330.0467 13.86968768  4214
HULIANWANG JISHU SHIYAN*;;2024-01-29T07:33:11+00:00;1 58693U 23212C   24029.31472148  .00000020  00000+0  14007-3 0  9994;2 58693  50.0002 308.9038 0007077  26.2564 333.8691 13.86994896  4210
INMARSAT 4-F2 (SOUTHPA*);;2025-10-05T03:30:23+00:00;1 28899U 05044A   25278.14610926 -.00000255  00000+0  00000+0 0  9993;2 28899   4.7609  43.6211 0003053 172.4617 354.1155  1.00271716 72963
LUDI TANCE 1-01A (L-SA*);;2025-10-05T04:32:58+00:00;1 51284U 22007A   25278.18956766  .00000173  00000+0  24566-4 0  9990;2 51284  97.8121 284.2827 0001617  92.2374 267.9028 14.88415642200543
LUDI TANCE 1-01B (L-SA*);;2025-10-05T03:44:33+00:00;1 51822U 22018A   25278.15594134  .00001709  00000+0  19025-3 0  9993;2 51822  97.8108 284.2386 0001603  89.9587 270.1813 14.88414709195779
NUSANTARA LIMA (NUSANT*);;2025-10-01T19:36:03+00:00;1 65588U 25205A   25274.81671068 -.00000365  00000+0  00000+0 0  9996;2 65588   0.3074 269.7257 4410081 108.1681  38.5175  1.00170277   171
NUSAT-24 (KALPANA CHAW*);;2023-12-28T09:53:52+00:00;1 52178U 22033X   23362.41241005  .00019957  00000+0  63127-3 0  9998;2 52178  97.3014  78.9112 0007362 187.2227 172.8911 15.32787638 97021
NUSAT-34 (AMELIA EARHA*);;2023-12-28T09:57:06+00:00;1 55045U 23001AN  23362.41465528  .00011734  00000+0  49330-3 0  9993;2 55045  97.4201  59.3866 0013145  46.6819 313.5511 15.23491123 54604
NUSAT-44 (MARIA MITCHE*);;2024-04-03T14:01:38+00:00;1 59122U 24043AA  24094.58447398  .00008474  00000+0  42912-3 0  9992;2 59122  97.4658 219.4233 0014203 186.6243 173.4805 15.17153384  4497
NUSAT-48 (HENRIETTA LE*);;2025-10-05T04:58:16+00:00;1 60498U 24149AG  25278.20713307  .00016184  00000+0  54758-3 0  9995;2 60498  97.3989 355.7817 0006105 105.7243 254.4671 15.30673550 63142
NUSAT-49 (KLARA DAN VO*);;2025-10-05T03:45:01+00:00;1 60500U 24149AJ  25278.15626609  .00016352  00000+0  56082-3 0  9990;2 60500  97.4014 355.8511 0005713 102.7480 257.4399 15.30232010 63133
POLYTECH-UNIVERSE 3 (R*);;2025-10-05T04:09:35+00:00;1 57191U 23091AB  25278.17333051  .00008903  00000+0  46871-3 0  9993;2 57191  97.5453 332.6069 0015267 297.3331  62.6347 15.15761223125274
ROBUSTA-3A (MEDITERRAN*);;2025-10-04T14:40:25+00:00;1 60243U 24128J   25277.61140696  .00014747  00000+0  96808-3 0  9994;2 60243  61.9893  28.8117 0056374  76.2667 284.4692 15.06576575 67846
SAMSAT-IONOSPHERE (RS7*);;2025-10-05T05:08:14+00:00;1 61784U 24199BB  25278.21405186  .00028534  00000+0  75955-3 0  9997;2 61784  97.3336 146.3227 0014983 127.1833 233.0782 15.38051083 98134
TIANJIN UNIVERSITY 1 (*);;2024-07-29T22:43:27+00:00;1 49812U 21117A   24211.94685183  .01486118  23929-5  67695-3 0  9995;2 49812  97.3115 311.7969 0010221 258.2196 101.7948 16.21891310149069
CALSPHERE 1;900;2025-10-05T10:37:28.191360;;
CALSPHERE 2;902;2025-10-05T11:04:00.444864;;
LCS 1;1361;2025-10-05T12:08:01.406976;;
TEMPSAT 1;1512;2025-10-05T06:44:31.462944;;
CALSPHERE 4A;1520;2025-10-05T13:13:59.657952;;
OPS 5712 (P/L 160);2826;2025-10-05T11:22:39.247968;;
LES-5;2866;2025-10-05T09:34:37.260768;;
SURCAL 159;2872;2025-10-05T03:43:44.883840;;
OPS 5712 (P/L 153);2874;2025-10-05T11:26:02.304384;;
SURCAL 150B;2909;2025-10-05T11:00:45.006336;;
OPS 3811 (DSP 2);5204;2025-10-05T07:38:59.060832;;
RIGIDSPHERE 2 (LCS 4);5398;2025-10-05T10:46:50.886048;;
OSCAR 7 (AO-7);7530;2025-10-05T00:26:47.433120;;
STARLETTE;7646;2025-10-05T11:25:06.465792;;
LAGEOS 1;8820;2025-10-05T08:39:11.622816;;
OPS 8701 (DSP 10);13086;2025-10-05T10:50:48.168960;;
PHASE 3B (AO-10);14129;2025-10-05T09:39:48.445056;;
UOSAT 2 (UO-11);14781;2025-10-05T10:15:42.238080;;
AJISAI (EGS);16908;2025-10-05T10:06:57.663072;;
TDRS 3;19548;2025-10-05T09:12:38.998080;;
COSMOS 1989 (ETALON 1);19751;2025-10-03T13:42:51.583968;;
COSMOS 2024 (ETALON 2);20026;2025-10-05T09:51:26.564832;;
FLTSATCOM 8 (USA 46);20253;2025-10-04T14:13:33.581856;;
LUSAT (LO-19);20442;2025-10-05T00:41:22.448256;;
HST;20580;2025-10-05T07:35:15.931968;;
SKYNET 4C;20776;2025-10-04T20:38:11.701824;;
USA 65 (DSP 15);20929;2025-10-05T07:49:05.592288;;
TDRS 5;21639;2025-10-05T09:30:38.814912;;
USA 75 (DSP 16);21805;2025-10-05T06:01:47.078976;;
LAGEOS 2;22195;2025-10-01T10:30:28.379808;;
TDRS 6;22314;2025-10-05T06:43:00.411168;;
SCD 1;22490;2025-10-05T11:53:30.965856;;
UFO 2 (USA 95);22787;2025-10-04T20:36:56.823264;;
STELLA;22824;2025-10-05T11:36:04.628160;;
EYESAT A (AO-27);22825;2025-10-05T11:15:47.826720;;
ITAMSAT (IO-26);22826;2025-10-05T10:53:43.331136;;
USA 99 (MILSTAR-1 1);22988;2025-10-01T20:06:45.860256;;
RADIO ROSTO (RS-15);23439;2025-10-05T11:44:51.955008;;
UFO 4 (USA 108);23467;2025-10-05T05:28:24.235392;;
TDRS 7;23613;2025-10-04T17:39:30.224736;;
USA 115 (MILSTAR-1 2);23712;2025-10-05T09:21:44.404992;;
POLAR;23802;2025-10-03T13:20:43.679904;;
INMARSAT 3-F1;23839;2025-10-05T03:30:38.716416;;
USA 119;23893;2025-10-05T07:42:57.199968;;
JAS-2 (FO-29);24278;2025-10-05T09:13:09.519744;;
INMARSAT 3-F2;24307;2025-10-05T12:06:44.343360;;
INMARSAT 3-F3;24674;2025-10-05T10:44:37.162176;;
NAVSTAR 43 (USA 132);24876;2025-10-04T22:17:14.280000;;
FORTE;24920;2025-10-05T07:30:34.153920;;
AMC-3;24936;2025-10-05T10:25:22.116000;;
USA 134;25019;2025-10-05T09:32:10.290048;;
ORBCOMM FM06;25118;2025-10-05T11:44:36.779712;;
INMARSAT 3-F5;25153;2025-10-05T05:54:25.836768;;
ORBCOMM FM04;25159;2025-10-05T11:17:57.449184;;
CELESTIS-02 & TAURUS R/B;25160;2025-10-05T12:49:17.142816;;
TECHSAT 1B (GO-32);25397;2025-10-05T10:15:28.185984;;
WESTPAC;25398;2025-10-05T11:01:33.182976;;
ORBCOMM FM19;25415;2025-10-05T07:30:33.700320;;
ORBCOMM FM20;25416;2025-10-05T11:54:07.566624;;
ORBCOMM FM27;25481;2025-10-04T21:04:58.799712;;
SCD 2;25504;2025-10-05T11:43:57.387360;;
ISS (ZARYA);25544;2025-10-05T11:57:08.971200;;
SWAS;25560;2025-10-05T09:16:41.973024;;
SKYNET 4E;25639;2025-09-30T00:30:26.836416;;
DLR-TUBSAT;25757;2025-10-05T11:02:25.601856;;
CXO;25867;2025-10-04T20:40:38.074656;;
ABS-6;25924;2025-10-05T11:46:38.730720;;
NAVSTAR 46 (USA 145);25933;2025-10-05T06:46:38.615232;;
UFO 10 (USA 146);25967;2025-10-05T03:13:09.550848;;
ORBCOMM FM32;25982;2025-10-05T11:16:31.984032;;
XMM-NEWTON;25989;2025-10-04T01:31:41.627136;;
TERRA;25994;2025-10-05T11:02:21.043392;;
ASIASTAR;26107;2025-10-05T08:57:58.988160;;
IMAGE;26113;2025-10-05T07:47:43.132992;;
USA 149 (DSP 20);26356;2025-10-03T11:46:38.793792;;
NAVSTAR 47 (USA 150);26360;2025-10-05T06:46:30.345024;;
TDRS 8;26388;2025-10-04T19:36:38.628000;;
NAVSTAR 48 (USA 151);26407;2025-10-05T06:26:42.757152;;
CLUSTER II-FM7 (SAMBA);26410;2025-10-03T11:21:06.895008;;
CLUSTER II-FM5 (RUMBA);26463;2025-10-04T07:49:37.456608;;
CLUSTER II-FM8 (TANGO);26464;2025-10-03T17:42:36.535968;;
NSS-11;26554;2025-10-05T11:01:02.187840;;
USA 153;26575;2025-10-05T05:40:47.894016;;
AMC-6;26580;2025-10-05T12:31:19.148160;;
NAVSTAR 49 (USA 154);26605;2025-10-05T09:45:02.020032;;
ODIN;26702;2025-10-05T08:16:02.559648;;
USA 157 (MILSTAR-2 2);26715;2025-10-05T12:13:35.289408;;
BSAT-2A;26720;2025-10-05T12:11:23.792064;;
INTELSAT 10 (IS-10);26766;2025-10-05T10:31:27.524928;;
OMNI-M1;26857;2025-09-24T11:24:34.662816;;
USA 159 (DSP 21);26880;2025-10-02T03:54:38.498112;;
INTELSAT 902 (IS-902);26900;2025-09-29T07:40:38.690400;;
PCSAT (NO-44);26931;2025-10-05T11:47:06.790848;;
PROBA-1;26958;2025-10-05T11:11:59.740224;;
TIMED;26998;2025-10-05T10:22:38.076096;;
MAROC-TUBSAT;27004;2025-10-05T11:09:13.020192;;
COSMOS 2385;27056;2025-10-05T14:04:12.667008;;
COSMOS 2386;27057;2025-10-05T08:51:27.464832;;
USA 164 (MILSTAR-2 3);27168;2025-10-05T11:58:52.595904;;
INTELSAT 904 (IS-904);27380;2025-10-04T16:55:18.074784;;
AQUA;27424;2025-10-05T12:21:34.060320;;
DIRECTV 5 (TEMPO 1);27426;2025-10-05T11:25:37.765056;;
INTELSAT 905 (IS-905);27438;2025-10-05T12:29:13.060320;;
GALAXY 3C (G-3C);27445;2025-10-05T11:50:32.809920;;
COSMOS 2390;27464;2025-10-05T13:01:38.303616;;
COSMOS 2391;27465;2025-10-05T13:04:49.733184;;
INTELSAT 906 (IS-906);27513;2025-10-05T12:11:51.351072;;
TDRS 10;27566;2025-10-05T10:07:19.516224;;
LATINSAT B;27606;2025-10-05T11:10:34.365792;;
SAUDISAT 1C (SO-50);27607;2025-10-05T04:30:17.900352;;
LATINSAT A;27612;2025-10-05T11:40:07.730112;;
NIMIQ 2;27632;2025-10-05T11:22:22.641888;;
CORIOLIS;27640;2025-10-05T10:59:07.079712;;
SORCE;27651;2025-10-05T08:20:40.619040;;
NAVSTAR 51 (USA 166);27663;2025-10-05T10:09:32.719104;;
USA 167;27691;2025-10-05T11:18:38.001024;;
NAVSTAR 52 (USA 168);27704;2025-10-05T05:46:10.592832;;
USA 169 (MILSTAR-2 4);27711;2025-09-30T16:08:57.404832;;
